{"fetched_at":"2026-03-29T16:36:15Z","count":15609,"tles":[{"name":"STARLINK-11414 [DTC]","line1":"1 61948U 24209K   26087.81244080  .00135560  00000+0  11030-2 0  9991","line2":"2 61948  53.1576 276.8212 0001056 103.7048 256.4087 15.69767392 79722","category":"Starlink"}]}